{
    "links": {
        "self": "http://www.neowsapp.com/rest/v1/neo/3776419?api_key=iIulBulltgU6a56xZRHN4H3l9WmuAYTsLGpBGhQ2"
    },
    "id": "3776419",
    "neo_reference_id": "3776419",
    "name": "(2017 NL2)",
    "designation": "2017 NL2",
    "nasa_jpl_url": "http://ssd.jpl.nasa.gov/sbdb.cgi?sstr=3776419",
    "absolute_magnitude_h": 23.0,
    "estimated_diameter": {
        "kilometers": {
            "estimated_diameter_min": 0.0667659413,
            "estimated_diameter_max": 0.1492931834
        },
        "meters": {
            "estimated_diameter_min": 66.7659413495,
            "estimated_diameter_max": 149.2931834393
        },
        "miles": {
            "estimated_diameter_min": 0.0414864197,
            "estimated_diameter_max": 0.0927664547
        },
        "feet": {
            "estimated_diameter_min": 219.0483710172,
            "estimated_diameter_max": 489.807047955
        }
    },
    "is_potentially_hazardous_asteroid": false,
    "close_approach_data": [
        {
            "close_approach_date": "2017-07-02",
            "close_approach_date_full": "2017-Jul-02 13:58",
            "epoch_date_close_approach": 1499003880000,
            "relative_velocity": {
                "kilometers_per_second": "11.9727654291",
                "kilometers_per_hour": "43101.9555447038",
                "miles_per_hour": "26781.8789883189"
            },
            "miss_distance": {
                "astronomical": "0.0581561108",
                "lunar": "22.6227271012",
                "kilometers": "8700030.303163996",
                "miles": "5405948.1532393048"
            },
            "orbiting_body": "Earth"
        }
    ],
    "orbital_data": {
        "orbit_id": "4",
        "orbit_determination_date": "2017-07-23 06:19:48",
        "first_observation_date": "2017-07-06",
        "last_observation_date": "2017-07-16",
        "data_arc_in_days": 10,
        "observations_used": 45,
        "orbit_uncertainty": "8",
        "minimum_orbit_intersection": ".0563783",
        "jupiter_tisserand_invariant": "3.844",
        "epoch_osculation": "2457943.5",
        "eccentricity": ".4357549681674883",
        "semi_major_axis": "1.838713338073017",
        "inclination": "18.65023049220957",
        "ascending_node_longitude": "285.2899982505538",
        "orbital_period": "910.6876908896011",
        "perihelion_distance": "1.037484865971873",
        "perihelion_argument": "330.9329395025111",
        "aphelion_distance": "2.63994181017416",
        "perihelion_time": "2457914.289445842999",
        "mean_anomaly": "11.54709743166513",
        "mean_motion": ".3953056614264058",
        "equinox": "J2000",
        "orbit_class": {
            "orbit_class_type": "AMO",
            "orbit_class_description": "Near-Earth asteroid orbits similar to that of 1221 Amor",
            "orbit_class_range": "1.017 AU < q (perihelion) < 1.3 AU"
        }
    },
    "is_sentry_object": false
}